{
"type": "FeatureCollection",
"name": "MANCHA_URBANA",
"crs": { "type": "name", "properties": { "name": "urn:ogc:def:crs:OGC:1.3:CRS84" } },
"features": [
{ "type": "Feature", "properties": { }, "geometry": { "type": "MultiPolygon", "coordinates": [ [ [ [ -78.50165, -0.37134 ], [ -78.49818, -0.37221 ], [ -78.49755, -0.37359 ], [ -78.49458, -0.37457 ], [ -78.49496, -0.38004 ], [ -78.4982, -0.38344 ], [ -78.50032, -0.38298 ], [ -78.50027, -0.38175 ], [ -78.50249, -0.38076 ], [ -78.50272, -0.38513 ], [ -78.50576, -0.38448 ], [ -78.50597, -0.38581 ], [ -78.50792, -0.38505 ], [ -78.51327, -0.38944 ], [ -78.51213, -0.3909 ], [ -78.5137, -0.39245 ], [ -78.51745, -0.38939 ], [ -78.51775, -0.38789 ], [ -78.51641, -0.38715 ], [ -78.51625, -0.38417 ], [ -78.51729, -0.38306 ], [ -78.5148, -0.38144 ], [ -78.51559, -0.38095 ], [ -78.51506, -0.37962 ], [ -78.51344, -0.37971 ], [ -78.51339, -0.37849 ], [ -78.51137, -0.37788 ], [ -78.51079, -0.37629 ], [ -78.51173, -0.37449 ], [ -78.5108, -0.37319 ], [ -78.50948, -0.37314 ], [ -78.50939, -0.37222 ], [ -78.5082, -0.37278 ], [ -78.50165, -0.37134 ] ] ], [ [ [ -78.49867, -0.31544 ], [ -78.49761, -0.31595 ], [ -78.49708, -0.31241 ], [ -78.4998, -0.31352 ], [ -78.49868, -0.31141 ], [ -78.49461, -0.31187 ], [ -78.49419, -0.30924 ], [ -78.49569, -0.30881 ], [ -78.49546, -0.30777 ], [ -78.49756, -0.30924 ], [ -78.49967, -0.30916 ], [ -78.50039, -0.30506 ], [ -78.50277, -0.30397 ], [ -78.50742, -0.30384 ], [ -78.50783, -0.3019 ], [ -78.50955, -0.30079 ], [ -78.50898, -0.29862 ], [ -78.50945, -0.29922 ], [ -78.51184, -0.29799 ], [ -78.51047, -0.29648 ], [ -78.50869, -0.29745 ], [ -78.50501, -0.29585 ], [ -78.49926, -0.2967 ], [ -78.49955, -0.29301 ], [ -78.49878, -0.29322 ], [ -78.49782, -0.29184 ], [ -78.49717, -0.28916 ], [ -78.50503, -0.28783 ], [ -78.50488, -0.28605 ], [ -78.50262, -0.2838 ], [ -78.5019, -0.28438 ], [ -78.50111, -0.28354 ], [ -78.49988, -0.2804 ], [ -78.50341, -0.27785 ], [ -78.50305, -0.27374 ], [ -78.50445, -0.27202 ], [ -78.50355, -0.27121 ], [ -78.50409, -0.26712 ], [ -78.50308, -0.26661 ], [ -78.50233, -0.26188 ], [ -78.50006, -0.25743 ], [ -78.50107, -0.25695 ], [ -78.5076, -0.26569 ], [ -78.50833, -0.27112 ], [ -78.50655, -0.27185 ], [ -78.50576, -0.2768 ], [ -78.50704, -0.277 ], [ -78.51104, -0.2842 ], [ -78.51393, -0.28483 ], [ -78.51652, -0.28097 ], [ -78.5177, -0.28344 ], [ -78.51462, -0.288 ], [ -78.51691, -0.29092 ], [ -78.5192, -0.30162 ], [ -78.52096, -0.30551 ], [ -78.52185, -0.30543 ], [ -78.52262, -0.30937 ], [ -78.52285, -0.3132 ], [ -78.52039, -0.32272 ], [ -78.52078, -0.32746 ], [ -78.52458, -0.33946 ], [ -78.52665, -0.35135 ], [ -78.5259, -0.35156 ], [ -78.52725, -0.35598 ], [ -78.53341, -0.3575 ], [ -78.53454, -0.3592 ], [ -78.53677, -0.35837 ], [ -78.53975, -0.3607 ], [ -78.54507, -0.36225 ], [ -78.54659, -0.36031 ], [ -78.54778, -0.3609 ], [ -78.54969, -0.35999 ], [ -78.54899, -0.35691 ], [ -78.55737, -0.35259 ], [ -78.55849, -0.35174 ], [ -78.55752, -0.35031 ], [ -78.5613, -0.34771 ], [ -78.56282, -0.34718 ], [ -78.56659, -0.35292 ], [ -78.57262, -0.35094 ], [ -78.57119, -0.34751 ], [ -78.56956, -0.34774 ], [ -78.56857, -0.34554 ], [ -78.56818, -0.34449 ], [ -78.56931, -0.34431 ], [ -78.56873, -0.3422 ], [ -78.57477, -0.34327 ], [ -78.57508, -0.342 ], [ -78.57209, -0.34067 ], [ -78.57266, -0.33996 ], [ -78.56567, -0.33335 ], [ -78.5647, -0.3338 ], [ -78.56462, -0.33117 ], [ -78.56545, -0.33092 ], [ -78.56471, -0.32929 ], [ -78.56581, -0.33092 ], [ -78.56592, -0.33289 ], [ -78.57071, -0.3379 ], [ -78.57751, -0.34153 ], [ -78.58151, -0.34198 ], [ -78.58267, -0.3399 ], [ -78.5797, -0.33848 ], [ -78.58162, -0.33689 ], [ -78.57926, -0.33391 ], [ -78.57535, -0.33256 ], [ -78.57141, -0.32607 ], [ -78.57243, -0.32615 ], [ -78.57483, -0.33053 ], [ -78.57869, -0.33186 ], [ -78.5802, -0.33124 ], [ -78.57976, -0.3317 ], [ -78.58205, -0.33381 ], [ -78.58385, -0.33354 ], [ -78.58391, -0.33118 ], [ -78.58134, -0.32962 ], [ -78.58192, -0.32564 ], [ -78.57863, -0.32539 ], [ -78.57985, -0.32387 ], [ -78.5787, -0.3208 ], [ -78.57545, -0.31971 ], [ -78.57367, -0.3206 ], [ -78.5718, -0.3152 ], [ -78.57285, -0.31417 ], [ -78.57219, -0.31293 ], [ -78.5739, -0.31208 ], [ -78.57564, -0.30831 ], [ -78.57223, -0.30751 ], [ -78.57275, -0.3056 ], [ -78.5718, -0.30483 ], [ -78.57379, -0.30403 ], [ -78.57373, -0.30306 ], [ -78.57481, -0.30317 ], [ -78.5751, -0.29914 ], [ -78.5759, -0.29964 ], [ -78.5786, -0.29844 ], [ -78.57987, -0.2994 ], [ -78.58018, -0.29681 ], [ -78.57903, -0.29407 ], [ -78.57786, -0.29345 ], [ -78.57881, -0.29089 ], [ -78.57997, -0.29075 ], [ -78.58173, -0.29276 ], [ -78.58373, -0.29133 ], [ -78.58209, -0.2898 ], [ -78.58578, -0.28782 ], [ -78.58963, -0.289 ], [ -78.58792, -0.28562 ], [ -78.58533, -0.28658 ], [ -78.58459, -0.28514 ], [ -78.58606, -0.28334 ], [ -78.58585, -0.28175 ], [ -78.58796, -0.27749 ], [ -78.58801, -0.2767 ], [ -78.58585, -0.27794 ], [ -78.58632, -0.27506 ], [ -78.58203, -0.27658 ], [ -78.58176, -0.28005 ], [ -78.57997, -0.28445 ], [ -78.57913, -0.28447 ], [ -78.58004, -0.28496 ], [ -78.57806, -0.28694 ], [ -78.57691, -0.28691 ], [ -78.57648, -0.28581 ], [ -78.57305, -0.28687 ], [ -78.57395, -0.28593 ], [ -78.57334, -0.28541 ], [ -78.57586, -0.2829 ], [ -78.57732, -0.28282 ], [ -78.57764, -0.2796 ], [ -78.5764, -0.27895 ], [ -78.57647, -0.27716 ], [ -78.57557, -0.27805 ], [ -78.57567, -0.2803 ], [ -78.57348, -0.2804 ], [ -78.57307, -0.27875 ], [ -78.57289, -0.28033 ], [ -78.56961, -0.28204 ], [ -78.56706, -0.28109 ], [ -78.56759, -0.27759 ], [ -78.57073, -0.27588 ], [ -78.57046, -0.27345 ], [ -78.56853, -0.27084 ], [ -78.56968, -0.26587 ], [ -78.56644, -0.26675 ], [ -78.565, -0.26506 ], [ -78.56336, -0.26782 ], [ -78.56121, -0.26905 ], [ -78.56491, -0.26508 ], [ -78.56365, -0.26324 ], [ -78.56423, -0.26232 ], [ -78.56204, -0.26103 ], [ -78.56357, -0.2582 ], [ -78.56191, -0.25837 ], [ -78.56025, -0.25712 ], [ -78.56395, -0.25463 ], [ -78.56346, -0.25275 ], [ -78.5607, -0.25202 ], [ -78.55952, -0.2531 ], [ -78.55962, -0.25483 ], [ -78.56071, -0.25398 ], [ -78.56193, -0.25377 ], [ -78.56269, -0.25393 ], [ -78.55871, -0.25561 ], [ -78.55569, -0.25593 ], [ -78.55444, -0.25271 ], [ -78.55754, -0.24994 ], [ -78.55673, -0.24887 ], [ -78.55244, -0.25093 ], [ -78.55059, -0.25462 ], [ -78.54935, -0.25605 ], [ -78.54836, -0.25607 ], [ -78.55042, -0.2541 ], [ -78.55036, -0.25189 ], [ -78.55222, -0.24851 ], [ -78.54992, -0.24865 ], [ -78.54883, -0.25057 ], [ -78.54811, -0.24776 ], [ -78.54998, -0.2456 ], [ -78.54877, -0.24321 ], [ -78.55003, -0.24135 ], [ -78.5496, -0.2392 ], [ -78.54885, -0.23803 ], [ -78.54595, -0.23776 ], [ -78.54326, -0.23996 ], [ -78.54315, -0.23849 ], [ -78.54057, -0.23797 ], [ -78.54208, -0.23691 ], [ -78.54122, -0.23637 ], [ -78.54186, -0.23461 ], [ -78.54059, -0.22705 ], [ -78.53991, -0.22796 ], [ -78.54034, -0.23279 ], [ -78.53668, -0.22956 ], [ -78.53525, -0.22936 ], [ -78.53485, -0.23026 ], [ -78.53482, -0.22616 ], [ -78.53293, -0.22268 ], [ -78.5343, -0.22127 ], [ -78.53402, -0.2201 ], [ -78.53212, -0.22222 ], [ -78.53207, -0.22417 ], [ -78.53152, -0.22275 ], [ -78.53213, -0.22186 ], [ -78.53041, -0.22409 ], [ -78.52812, -0.22278 ], [ -78.52833, -0.22094 ], [ -78.52678, -0.21952 ], [ -78.52708, -0.21747 ], [ -78.53045, -0.21577 ], [ -78.53108, -0.21448 ], [ -78.53167, -0.21553 ], [ -78.5299, -0.21791 ], [ -78.53105, -0.21778 ], [ -78.53432, -0.21375 ], [ -78.53304, -0.21283 ], [ -78.5301, -0.21439 ], [ -78.52765, -0.21223 ], [ -78.52597, -0.21393 ], [ -78.5266, -0.2118 ], [ -78.52913, -0.21011 ], [ -78.52886, -0.20579 ], [ -78.52758, -0.20623 ], [ -78.52759, -0.20426 ], [ -78.52031, -0.20547 ], [ -78.5173, -0.20739 ], [ -78.51496, -0.20751 ], [ -78.51085, -0.20425 ], [ -78.51214, -0.19886 ], [ -78.52006, -0.19591 ], [ -78.51932, -0.19391 ], [ -78.51623, -0.19667 ], [ -78.51269, -0.19622 ], [ -78.51275, -0.19378 ], [ -78.51381, -0.19375 ], [ -78.51316, -0.19095 ], [ -78.51501, -0.19022 ], [ -78.51902, -0.19083 ], [ -78.5168, -0.19007 ], [ -78.51818, -0.18918 ], [ -78.51773, -0.18654 ], [ -78.51392, -0.18459 ], [ -78.51559, -0.18301 ], [ -78.51725, -0.18312 ], [ -78.51627, -0.18187 ], [ -78.5199, -0.17846 ], [ -78.51788, -0.17831 ], [ -78.51456, -0.1799 ], [ -78.51626, -0.17875 ], [ -78.5133, -0.17795 ], [ -78.51206, -0.17531 ], [ -78.50754, -0.17769 ], [ -78.50286, -0.17569 ], [ -78.50572, -0.17451 ], [ -78.50572, -0.17161 ], [ -78.50441, -0.16964 ], [ -78.50201, -0.16927 ], [ -78.50205, -0.1671 ], [ -78.49874, -0.16831 ], [ -78.49809, -0.1652 ], [ -78.49856, -0.16342 ], [ -78.50159, -0.16387 ], [ -78.50306, -0.16059 ], [ -78.50778, -0.16055 ], [ -78.51086, -0.16184 ], [ -78.51017, -0.16054 ], [ -78.51125, -0.1591 ], [ -78.50487, -0.15848 ], [ -78.50608, -0.15839 ], [ -78.50504, -0.1564 ], [ -78.50731, -0.15543 ], [ -78.50557, -0.15297 ], [ -78.50586, -0.15152 ], [ -78.50939, -0.15206 ], [ -78.50806, -0.15037 ], [ -78.50867, -0.14861 ], [ -78.50969, -0.14899 ], [ -78.50814, -0.14807 ], [ -78.50931, -0.14363 ], [ -78.51328, -0.14527 ], [ -78.51425, -0.14769 ], [ -78.51608, -0.14519 ], [ -78.5146, -0.1449 ], [ -78.51603, -0.14407 ], [ -78.52007, -0.14542 ], [ -78.5212, -0.14696 ], [ -78.52164, -0.14579 ], [ -78.51087, -0.13603 ], [ -78.50718, -0.13609 ], [ -78.50798, -0.13578 ], [ -78.50675, -0.13442 ], [ -78.50697, -0.13267 ], [ -78.50609, -0.13158 ], [ -78.50669, -0.13122 ], [ -78.50501, -0.12811 ], [ -78.50812, -0.12745 ], [ -78.50879, -0.12815 ], [ -78.50777, -0.12837 ], [ -78.50777, -0.12915 ], [ -78.51218, -0.13269 ], [ -78.51324, -0.13195 ], [ -78.51681, -0.13255 ], [ -78.51779, -0.12838 ], [ -78.5216, -0.12945 ], [ -78.5261, -0.12837 ], [ -78.52465, -0.12231 ], [ -78.5194, -0.1195 ], [ -78.52094, -0.11762 ], [ -78.5202, -0.1153 ], [ -78.52422, -0.11332 ], [ -78.52332, -0.11187 ], [ -78.52093, -0.10984 ], [ -78.51809, -0.10939 ], [ -78.51658, -0.1121 ], [ -78.51382, -0.11235 ], [ -78.51353, -0.11504 ], [ -78.51667, -0.11445 ], [ -78.51772, -0.11649 ], [ -78.51498, -0.11787 ], [ -78.51545, -0.11829 ], [ -78.51125, -0.11515 ], [ -78.5126, -0.10979 ], [ -78.51426, -0.10964 ], [ -78.51467, -0.10774 ], [ -78.51656, -0.10784 ], [ -78.51489, -0.10727 ], [ -78.51565, -0.10663 ], [ -78.51561, -0.10169 ], [ -78.51439, -0.10112 ], [ -78.51458, -0.10304 ], [ -78.51387, -0.10302 ], [ -78.51325, -0.1005 ], [ -78.51377, -0.09964 ], [ -78.51563, -0.09978 ], [ -78.51863, -0.10327 ], [ -78.52114, -0.10429 ], [ -78.52331, -0.1073 ], [ -78.52802, -0.10969 ], [ -78.52944, -0.10859 ], [ -78.52864, -0.10493 ], [ -78.52497, -0.10232 ], [ -78.52357, -0.09951 ], [ -78.525, -0.09861 ], [ -78.52796, -0.10032 ], [ -78.53071, -0.09941 ], [ -78.53413, -0.10347 ], [ -78.53435, -0.10053 ], [ -78.53562, -0.09918 ], [ -78.53221, -0.09661 ], [ -78.53073, -0.09316 ], [ -78.53186, -0.09221 ], [ -78.53179, -0.09054 ], [ -78.53344, -0.09074 ], [ -78.53282, -0.08983 ], [ -78.52685, -0.09032 ], [ -78.51763, -0.08376 ], [ -78.51195, -0.08389 ], [ -78.51356, -0.08664 ], [ -78.51824, -0.0864 ], [ -78.51842, -0.08743 ], [ -78.51364, -0.08734 ], [ -78.5111, -0.08418 ], [ -78.51105, -0.08249 ], [ -78.50412, -0.08021 ], [ -78.50302, -0.07855 ], [ -78.49734, -0.08073 ], [ -78.49318, -0.07903 ], [ -78.49312, -0.08059 ], [ -78.48798, -0.0764 ], [ -78.48578, -0.07714 ], [ -78.48423, -0.07588 ], [ -78.48071, -0.07586 ], [ -78.48002, -0.07466 ], [ -78.48604, -0.07567 ], [ -78.48734, -0.07535 ], [ -78.48757, -0.0743 ], [ -78.48404, -0.07332 ], [ -78.48228, -0.07103 ], [ -78.48063, -0.07119 ], [ -78.47958, -0.06734 ], [ -78.47758, -0.06789 ], [ -78.47643, -0.06608 ], [ -78.47265, -0.06698 ], [ -78.47054, -0.06453 ], [ -78.47318, -0.06185 ], [ -78.47108, -0.06184 ], [ -78.47064, -0.05869 ], [ -78.46769, -0.06042 ], [ -78.4674, -0.05657 ], [ -78.46338, -0.05693 ], [ -78.46419, -0.05527 ], [ -78.46364, -0.05269 ], [ -78.46071, -0.05399 ], [ -78.4572, -0.05313 ], [ -78.4594, -0.05294 ], [ -78.46232, -0.04987 ], [ -78.46102, -0.04939 ], [ -78.45859, -0.05128 ], [ -78.45772, -0.04881 ], [ -78.45847, -0.04659 ], [ -78.45661, -0.04627 ], [ -78.45951, -0.045 ], [ -78.45914, -0.04402 ], [ -78.45731, -0.0446 ], [ -78.45705, -0.04344 ], [ -78.45623, -0.04374 ], [ -78.4582, -0.03991 ], [ -78.45535, -0.04066 ], [ -78.45615, -0.04034 ], [ -78.45477, -0.03981 ], [ -78.45374, -0.03757 ], [ -78.4545, -0.03504 ], [ -78.45318, -0.03064 ], [ -78.45408, -0.03001 ], [ -78.45351, -0.02719 ], [ -78.45236, -0.02714 ], [ -78.45359, -0.02484 ], [ -78.45215, -0.02398 ], [ -78.4538, -0.02446 ], [ -78.45325, -0.02278 ], [ -78.45553, -0.01997 ], [ -78.45481, -0.01904 ], [ -78.45531, -0.01724 ], [ -78.4574, -0.01613 ], [ -78.45454, -0.01487 ], [ -78.4565, -0.01223 ], [ -78.45997, -0.01209 ], [ -78.4584, -0.01051 ], [ -78.45929, -0.00861 ], [ -78.45638, -0.00379 ], [ -78.45591, -0.0051 ], [ -78.4561, -0.00394 ], [ -78.45885, -0.00191 ], [ -78.45821, -0.00262 ], [ -78.46162, -0.00394 ], [ -78.4619, -0.00065 ], [ -78.4578, -0.0007 ], [ -78.46061, 0.00047 ], [ -78.46463, 0.00415 ], [ -78.46782, 0.00985 ], [ -78.47406, 0.01429 ], [ -78.47133, 0.01823 ], [ -78.47064, 0.01611 ], [ -78.46842, 0.01707 ], [ -78.46363, 0.02254 ], [ -78.4625, 0.01966 ], [ -78.46275, 0.01641 ], [ -78.4613, 0.01577 ], [ -78.46252, 0.01419 ], [ -78.46092, 0.01305 ], [ -78.46231, 0.01112 ], [ -78.46067, 0.00995 ], [ -78.45979, 0.01109 ], [ -78.45647, 0.00868 ], [ -78.45475, 0.01108 ], [ -78.4535, 0.00978 ], [ -78.45123, 0.00939 ], [ -78.45334, 0.01024 ], [ -78.4528, 0.01194 ], [ -78.45219, 0.01079 ], [ -78.44977, 0.01043 ], [ -78.44871, 0.00774 ], [ -78.44688, 0.00813 ], [ -78.44401, 0.01554 ], [ -78.44252, 0.01451 ], [ -78.44206, 0.01565 ], [ -78.44092, 0.0148 ], [ -78.44144, 0.01372 ], [ -78.44044, 0.01192 ], [ -78.43637, 0.0121 ], [ -78.43497, 0.00979 ], [ -78.43179, 0.00857 ], [ -78.43105, 0.01013 ], [ -78.43162, 0.00827 ], [ -78.42856, 0.00934 ], [ -78.42752, 0.00754 ], [ -78.42845, 0.00785 ], [ -78.42966, 0.00662 ], [ -78.43281, 0.00056 ], [ -78.43319, -0.00473 ], [ -78.43156, -0.00339 ], [ -78.43047, -0.00576 ], [ -78.43393, -0.01558 ], [ -78.43321, -0.01719 ], [ -78.43435, -0.0182 ], [ -78.43607, -0.01801 ], [ -78.43679, -0.02136 ], [ -78.43762, -0.02157 ], [ -78.43785, -0.02365 ], [ -78.43471, -0.02462 ], [ -78.43681, -0.02829 ], [ -78.43644, -0.02909 ], [ -78.4383, -0.0304 ], [ -78.43771, -0.03201 ], [ -78.44191, -0.0413 ], [ -78.44196, -0.04484 ], [ -78.44474, -0.04434 ], [ -78.44638, -0.04683 ], [ -78.44699, -0.05062 ], [ -78.4494, -0.05319 ], [ -78.45115, -0.05699 ], [ -78.44981, -0.05964 ], [ -78.4503, -0.06018 ], [ -78.44921, -0.0605 ], [ -78.45028, -0.06559 ], [ -78.44797, -0.06817 ], [ -78.44622, -0.07287 ], [ -78.4434, -0.07537 ], [ -78.44201, -0.07534 ], [ -78.44107, -0.07239 ], [ -78.4375, -0.06974 ], [ -78.43393, -0.0655 ], [ -78.44367, -0.07148 ], [ -78.44658, -0.0691 ], [ -78.44376, -0.06928 ], [ -78.44235, -0.06877 ], [ -78.44356, -0.06879 ], [ -78.44331, -0.0682 ], [ -78.44172, -0.06821 ], [ -78.4432, -0.06789 ], [ -78.44021, -0.06739 ], [ -78.44457, -0.06719 ], [ -78.44071, -0.06653 ], [ -78.44098, -0.06637 ], [ -78.44541, -0.06673 ], [ -78.44114, -0.0659 ], [ -78.44144, -0.06562 ], [ -78.44554, -0.06619 ], [ -78.44234, -0.06361 ], [ -78.43845, -0.06428 ], [ -78.43552, -0.06338 ], [ -78.43658, -0.05909 ], [ -78.43604, -0.05639 ], [ -78.43462, -0.05584 ], [ -78.4344, -0.05473 ], [ -78.43353, -0.05455 ], [ -78.43232, -0.05611 ], [ -78.42998, -0.05428 ], [ -78.42824, -0.05627 ], [ -78.42683, -0.05312 ], [ -78.42414, -0.05318 ], [ -78.42433, -0.05057 ], [ -78.42292, -0.05078 ], [ -78.42293, -0.05249 ], [ -78.42184, -0.05257 ], [ -78.42196, -0.05489 ], [ -78.42048, -0.05501 ], [ -78.42037, -0.05368 ], [ -78.41831, -0.05375 ], [ -78.41834, -0.05754 ], [ -78.41549, -0.0581 ], [ -78.41547, -0.05885 ], [ -78.41163, -0.05902 ], [ -78.41125, -0.06348 ], [ -78.40924, -0.06419 ], [ -78.41035, -0.06842 ], [ -78.40864, -0.0687 ], [ -78.40906, -0.07063 ], [ -78.40736, -0.07131 ], [ -78.40841, -0.0754 ], [ -78.40653, -0.0757 ], [ -78.40826, -0.07958 ], [ -78.40724, -0.08002 ], [ -78.41228, -0.08823 ], [ -78.418, -0.09477 ], [ -78.41919, -0.10079 ], [ -78.41775, -0.10461 ], [ -78.41609, -0.10577 ], [ -78.41347, -0.11023 ], [ -78.41163, -0.11608 ], [ -78.41254, -0.11689 ], [ -78.41439, -0.11635 ], [ -78.41536, -0.1175 ], [ -78.41563, -0.116 ], [ -78.41573, -0.11731 ], [ -78.41762, -0.117 ], [ -78.41845, -0.11116 ], [ -78.41857, -0.11629 ], [ -78.42227, -0.11232 ], [ -78.42137, -0.11521 ], [ -78.42751, -0.11424 ], [ -78.42, -0.11582 ], [ -78.41693, -0.11797 ], [ -78.41364, -0.11854 ], [ -78.412, -0.12074 ], [ -78.41293, -0.12325 ], [ -78.41153, -0.12581 ], [ -78.41697, -0.12463 ], [ -78.40945, -0.12868 ], [ -78.40617, -0.13296 ], [ -78.41021, -0.13246 ], [ -78.40834, -0.1348 ], [ -78.40911, -0.13529 ], [ -78.41043, -0.13328 ], [ -78.41098, -0.13376 ], [ -78.41322, -0.13167 ], [ -78.41816, -0.13004 ], [ -78.41998, -0.12841 ], [ -78.42126, -0.12932 ], [ -78.42648, -0.12664 ], [ -78.42699, -0.12887 ], [ -78.43732, -0.12198 ], [ -78.44143, -0.12034 ], [ -78.43967, -0.12265 ], [ -78.44194, -0.12298 ], [ -78.44998, -0.11933 ], [ -78.44789, -0.12166 ], [ -78.44783, -0.1243 ], [ -78.44653, -0.12294 ], [ -78.44516, -0.1248 ], [ -78.44424, -0.12361 ], [ -78.44158, -0.12484 ], [ -78.43898, -0.12452 ], [ -78.4361, -0.12712 ], [ -78.44456, -0.12894 ], [ -78.43884, -0.13021 ], [ -78.43995, -0.13121 ], [ -78.43998, -0.13306 ], [ -78.44294, -0.13265 ], [ -78.44343, -0.13265 ], [ -78.44381, -0.13298 ], [ -78.43924, -0.13321 ], [ -78.44203, -0.13455 ], [ -78.44428, -0.13703 ], [ -78.44625, -0.13629 ], [ -78.44705, -0.13626 ], [ -78.44722, -0.13632 ], [ -78.44717, -0.1366 ], [ -78.44436, -0.13716 ], [ -78.43919, -0.13347 ], [ -78.43287, -0.13405 ], [ -78.43384, -0.1366 ], [ -78.43138, -0.13718 ], [ -78.43061, -0.13659 ], [ -78.42649, -0.13781 ], [ -78.42467, -0.13687 ], [ -78.41697, -0.1385 ], [ -78.41828, -0.13982 ], [ -78.41993, -0.13924 ], [ -78.4209, -0.14034 ], [ -78.42319, -0.14029 ], [ -78.42368, -0.14125 ], [ -78.42662, -0.14056 ], [ -78.4272, -0.14164 ], [ -78.43503, -0.14571 ], [ -78.43742, -0.1455 ], [ -78.44313, -0.14226 ], [ -78.44685, -0.13864 ], [ -78.44818, -0.13123 ], [ -78.45119, -0.13192 ], [ -78.45216, -0.13353 ], [ -78.45325, -0.13348 ], [ -78.45476, -0.134 ], [ -78.4519, -0.13431 ], [ -78.45201, -0.13629 ], [ -78.45319, -0.13607 ], [ -78.45199, -0.13657 ], [ -78.45225, -0.13795 ], [ -78.45907, -0.13895 ], [ -78.45839, -0.13977 ], [ -78.45959, -0.14089 ], [ -78.4579, -0.14133 ], [ -78.4597, -0.14397 ], [ -78.45797, -0.14409 ], [ -78.45565, -0.14218 ], [ -78.45133, -0.14377 ], [ -78.45091, -0.14265 ], [ -78.44984, -0.14262 ], [ -78.45083, -0.14401 ], [ -78.44836, -0.14337 ], [ -78.44645, -0.14519 ], [ -78.44687, -0.14687 ], [ -78.45349, -0.14448 ], [ -78.45284, -0.14676 ], [ -78.4556, -0.14747 ], [ -78.45418, -0.14744 ], [ -78.4551, -0.14808 ], [ -78.45237, -0.14691 ], [ -78.45064, -0.14722 ], [ -78.45028, -0.14872 ], [ -78.45519, -0.14885 ], [ -78.46431, -0.15163 ], [ -78.45871, -0.15186 ], [ -78.45506, -0.15021 ], [ -78.4529, -0.15043 ], [ -78.45209, -0.15224 ], [ -78.45997, -0.15375 ], [ -78.45852, -0.15429 ], [ -78.45368, -0.15271 ], [ -78.45137, -0.15354 ], [ -78.45356, -0.15553 ], [ -78.45144, -0.15432 ], [ -78.45125, -0.15583 ], [ -78.45275, -0.15803 ], [ -78.45016, -0.15729 ], [ -78.44912, -0.15861 ], [ -78.44982, -0.15945 ], [ -78.44919, -0.15892 ], [ -78.44769, -0.15969 ], [ -78.44201, -0.15584 ], [ -78.44107, -0.1538 ], [ -78.43901, -0.15504 ], [ -78.43348, -0.15421 ], [ -78.43307, -0.15552 ], [ -78.42787, -0.15693 ], [ -78.42984, -0.15783 ], [ -78.42881, -0.15949 ], [ -78.43052, -0.1607 ], [ -78.43122, -0.16361 ], [ -78.42178, -0.16786 ], [ -78.41844, -0.16507 ], [ -78.41764, -0.16602 ], [ -78.41877, -0.17126 ], [ -78.4224, -0.1718 ], [ -78.42691, -0.18047 ], [ -78.42309, -0.18175 ], [ -78.42289, -0.1792 ], [ -78.42034, -0.17799 ], [ -78.41955, -0.17613 ], [ -78.41842, -0.1796 ], [ -78.41666, -0.18099 ], [ -78.41451, -0.1809 ], [ -78.41554, -0.18199 ], [ -78.41479, -0.18347 ], [ -78.4167, -0.18404 ], [ -78.4174, -0.18192 ], [ -78.41858, -0.18149 ], [ -78.41849, -0.18358 ], [ -78.41998, -0.18343 ], [ -78.42155, -0.18109 ], [ -78.42281, -0.18178 ], [ -78.42149, -0.18173 ], [ -78.4194, -0.18432 ], [ -78.42138, -0.18334 ], [ -78.42155, -0.18434 ], [ -78.42391, -0.18398 ], [ -78.43189, -0.18552 ], [ -78.43656, -0.18942 ], [ -78.43777, -0.18854 ], [ -78.43784, -0.18982 ], [ -78.43925, -0.1891 ], [ -78.43935, -0.19065 ], [ -78.44072, -0.19195 ], [ -78.44297, -0.19135 ], [ -78.44231, -0.19345 ], [ -78.44341, -0.19392 ], [ -78.44847, -0.19211 ], [ -78.44952, -0.19301 ], [ -78.45098, -0.19201 ], [ -78.45177, -0.1933 ], [ -78.45346, -0.19229 ], [ -78.45256, -0.19112 ], [ -78.45372, -0.18966 ], [ -78.45584, -0.19149 ], [ -78.45817, -0.1908 ], [ -78.46596, -0.19418 ], [ -78.46867, -0.19307 ], [ -78.46967, -0.19145 ], [ -78.47278, -0.19155 ], [ -78.47373, -0.19053 ], [ -78.47607, -0.19003 ], [ -78.47644, -0.19071 ], [ -78.478, -0.18981 ], [ -78.47962, -0.19056 ], [ -78.47446, -0.19354 ], [ -78.47609, -0.1943 ], [ -78.47861, -0.20001 ], [ -78.47487, -0.19536 ], [ -78.47416, -0.19773 ], [ -78.4726, -0.1985 ], [ -78.47368, -0.1986 ], [ -78.47464, -0.20168 ], [ -78.47622, -0.20174 ], [ -78.47465, -0.20363 ], [ -78.47627, -0.20409 ], [ -78.47428, -0.20424 ], [ -78.47633, -0.20638 ], [ -78.47612, -0.20789 ], [ -78.47745, -0.20873 ], [ -78.47777, -0.20765 ], [ -78.4769, -0.2041 ], [ -78.47906, -0.20784 ], [ -78.4803, -0.21302 ], [ -78.48165, -0.21321 ], [ -78.47974, -0.21417 ], [ -78.47976, -0.21672 ], [ -78.48317, -0.21762 ], [ -78.47983, -0.21774 ], [ -78.4799, -0.21934 ], [ -78.47849, -0.22045 ], [ -78.47892, -0.22417 ], [ -78.47735, -0.22591 ], [ -78.48367, -0.22446 ], [ -78.48359, -0.22528 ], [ -78.4856, -0.2258 ], [ -78.485, -0.22498 ], [ -78.48724, -0.22349 ], [ -78.48702, -0.22608 ], [ -78.48816, -0.22633 ], [ -78.48626, -0.22808 ], [ -78.48476, -0.22668 ], [ -78.47928, -0.2277 ], [ -78.4797, -0.2309 ], [ -78.48221, -0.23155 ], [ -78.47769, -0.23281 ], [ -78.47652, -0.23131 ], [ -78.47508, -0.23197 ], [ -78.47561, -0.23379 ], [ -78.47478, -0.23439 ], [ -78.47679, -0.23898 ], [ -78.47613, -0.24102 ], [ -78.4796, -0.2433 ], [ -78.47746, -0.24024 ], [ -78.48109, -0.23837 ], [ -78.48134, -0.24127 ], [ -78.48046, -0.24312 ], [ -78.48237, -0.24374 ], [ -78.48218, -0.24461 ], [ -78.47881, -0.2494 ], [ -78.47697, -0.24859 ], [ -78.46973, -0.25158 ], [ -78.47216, -0.25185 ], [ -78.47316, -0.25361 ], [ -78.47073, -0.25809 ], [ -78.47226, -0.25626 ], [ -78.47637, -0.25733 ], [ -78.47643, -0.2557 ], [ -78.47897, -0.25518 ], [ -78.47929, -0.25323 ], [ -78.47948, -0.25397 ], [ -78.48152, -0.25259 ], [ -78.48085, -0.24925 ], [ -78.48286, -0.24936 ], [ -78.48176, -0.25083 ], [ -78.48269, -0.25134 ], [ -78.48005, -0.25495 ], [ -78.48346, -0.25331 ], [ -78.48397, -0.25457 ], [ -78.4788, -0.25607 ], [ -78.47719, -0.25736 ], [ -78.47684, -0.25942 ], [ -78.47488, -0.25808 ], [ -78.47323, -0.25878 ], [ -78.47137, -0.26213 ], [ -78.46791, -0.26057 ], [ -78.46822, -0.25927 ], [ -78.46657, -0.25886 ], [ -78.46478, -0.2568 ], [ -78.46303, -0.25727 ], [ -78.46147, -0.25941 ], [ -78.46052, -0.25804 ], [ -78.45873, -0.25781 ], [ -78.45884, -0.26044 ], [ -78.45779, -0.26056 ], [ -78.45764, -0.26279 ], [ -78.45599, -0.26234 ], [ -78.45412, -0.26576 ], [ -78.45336, -0.27093 ], [ -78.45445, -0.27466 ], [ -78.45396, -0.27641 ], [ -78.44509, -0.28237 ], [ -78.44427, -0.28137 ], [ -78.44213, -0.28326 ], [ -78.44002, -0.28188 ], [ -78.43713, -0.28448 ], [ -78.43642, -0.28765 ], [ -78.43431, -0.28836 ], [ -78.43521, -0.28861 ], [ -78.43626, -0.29183 ], [ -78.43226, -0.29394 ], [ -78.43257, -0.29476 ], [ -78.43002, -0.29762 ], [ -78.42892, -0.29763 ], [ -78.42887, -0.29886 ], [ -78.42163, -0.30055 ], [ -78.42059, -0.30055 ], [ -78.41998, -0.29931 ], [ -78.41847, -0.30022 ], [ -78.41627, -0.29933 ], [ -78.4163, -0.29636 ], [ -78.41323, -0.29544 ], [ -78.41303, -0.29208 ], [ -78.41454, -0.29092 ], [ -78.41427, -0.28998 ], [ -78.40848, -0.28975 ], [ -78.40739, -0.28755 ], [ -78.40035, -0.28997 ], [ -78.39705, -0.28632 ], [ -78.39669, -0.28941 ], [ -78.39518, -0.28935 ], [ -78.39424, -0.2921 ], [ -78.3946, -0.29386 ], [ -78.39173, -0.29415 ], [ -78.39391, -0.29907 ], [ -78.39692, -0.30012 ], [ -78.39946, -0.30232 ], [ -78.40181, -0.30249 ], [ -78.40191, -0.2987 ], [ -78.40305, -0.29883 ], [ -78.40287, -0.29976 ], [ -78.40586, -0.29946 ], [ -78.40816, -0.29778 ], [ -78.40834, -0.29649 ], [ -78.40972, -0.29722 ], [ -78.41017, -0.29649 ], [ -78.41241, -0.29943 ], [ -78.4139, -0.29981 ], [ -78.41235, -0.30087 ], [ -78.41408, -0.30343 ], [ -78.41123, -0.30575 ], [ -78.41223, -0.30931 ], [ -78.41108, -0.30939 ], [ -78.40815, -0.31254 ], [ -78.4104, -0.3149 ], [ -78.41254, -0.31412 ], [ -78.41179, -0.31084 ], [ -78.42123, -0.30827 ], [ -78.42094, -0.30479 ], [ -78.41851, -0.30592 ], [ -78.41803, -0.3044 ], [ -78.42038, -0.30367 ], [ -78.42306, -0.30132 ], [ -78.42584, -0.30149 ], [ -78.4279, -0.29973 ], [ -78.43015, -0.2993 ], [ -78.4315, -0.30019 ], [ -78.43003, -0.30437 ], [ -78.43069, -0.30503 ], [ -78.43084, -0.30399 ], [ -78.43188, -0.30568 ], [ -78.42989, -0.30853 ], [ -78.4309, -0.31125 ], [ -78.42844, -0.31112 ], [ -78.43099, -0.31491 ], [ -78.43751, -0.31205 ], [ -78.43879, -0.30899 ], [ -78.43932, -0.31091 ], [ -78.44058, -0.31158 ], [ -78.44178, -0.30979 ], [ -78.44782, -0.30702 ], [ -78.45231, -0.30371 ], [ -78.45288, -0.30225 ], [ -78.4541, -0.30253 ], [ -78.45793, -0.29729 ], [ -78.45954, -0.29727 ], [ -78.46297, -0.29084 ], [ -78.46281, -0.29804 ], [ -78.46158, -0.29857 ], [ -78.46303, -0.30234 ], [ -78.46217, -0.3031 ], [ -78.46199, -0.3065 ], [ -78.46279, -0.30644 ], [ -78.46406, -0.30968 ], [ -78.46774, -0.31126 ], [ -78.46917, -0.31476 ], [ -78.4722, -0.31554 ], [ -78.46603, -0.32219 ], [ -78.46622, -0.32377 ], [ -78.4675, -0.32379 ], [ -78.46683, -0.32509 ], [ -78.46755, -0.32509 ], [ -78.46747, -0.32726 ], [ -78.46863, -0.32917 ], [ -78.47634, -0.32628 ], [ -78.48001, -0.33471 ], [ -78.47294, -0.33676 ], [ -78.47275, -0.33855 ], [ -78.4739, -0.34019 ], [ -78.47542, -0.34047 ], [ -78.4769, -0.34365 ], [ -78.47801, -0.3435 ], [ -78.48096, -0.35052 ], [ -78.48625, -0.34808 ], [ -78.48504, -0.34265 ], [ -78.48881, -0.34204 ], [ -78.48956, -0.34406 ], [ -78.4934, -0.3427 ], [ -78.48965, -0.33347 ], [ -78.49654, -0.33391 ], [ -78.49604, -0.33047 ], [ -78.49378, -0.33101 ], [ -78.49305, -0.3287 ], [ -78.49909, -0.32709 ], [ -78.49762, -0.3221 ], [ -78.5006, -0.32213 ], [ -78.50167, -0.31779 ], [ -78.50544, -0.31694 ], [ -78.50332, -0.31554 ], [ -78.49867, -0.31544 ] ], [ [ -78.438, -0.1608 ], [ -78.438, -0.16079 ], [ -78.438, -0.1608 ], [ -78.438, -0.1608 ] ], [ [ -78.44789, -0.16588 ], [ -78.45273, -0.16628 ], [ -78.45276, -0.17062 ], [ -78.45473, -0.17428 ], [ -78.4559, -0.18036 ], [ -78.45487, -0.18155 ], [ -78.45172, -0.18068 ], [ -78.45096, -0.18337 ], [ -78.45248, -0.18494 ], [ -78.45244, -0.18839 ], [ -78.44855, -0.18939 ], [ -78.44821, -0.18856 ], [ -78.45079, -0.1869 ], [ -78.44915, -0.18238 ], [ -78.44688, -0.18241 ], [ -78.44834, -0.18204 ], [ -78.4506, -0.17906 ], [ -78.44562, -0.17887 ], [ -78.44664, -0.17717 ], [ -78.44981, -0.17607 ], [ -78.44803, -0.17269 ], [ -78.4481, -0.17066 ], [ -78.44643, -0.1705 ], [ -78.44597, -0.16844 ], [ -78.44831, -0.1677 ], [ -78.44789, -0.16588 ] ], [ [ -78.4954, -0.18639 ], [ -78.4954, -0.18639 ], [ -78.4954, -0.18639 ], [ -78.4954, -0.18639 ] ], [ [ -78.49538, -0.18641 ], [ -78.49538, -0.18641 ], [ -78.49538, -0.18641 ], [ -78.49538, -0.18641 ] ], [ [ -78.44774, -0.13256 ], [ -78.44536, -0.13341 ], [ -78.44393, -0.1331 ], [ -78.44676, -0.13218 ], [ -78.44774, -0.13256 ] ], [ [ -78.4398, 0.00627 ], [ -78.43625, 0.00583 ], [ -78.43402, 0.00645 ], [ -78.43724, 0.00861 ], [ -78.43811, 0.00698 ], [ -78.43952, 0.00762 ], [ -78.4398, 0.00627 ] ], [ [ -78.43806, 0.00932 ], [ -78.43513, 0.00747 ], [ -78.43437, 0.00876 ], [ -78.43653, 0.01145 ], [ -78.43806, 0.00932 ] ] ], [ [ [ -78.47463, -0.36323 ], [ -78.47442, -0.36458 ], [ -78.47548, -0.36592 ], [ -78.47429, -0.36646 ], [ -78.47485, -0.36772 ], [ -78.478, -0.36609 ], [ -78.47664, -0.3639 ], [ -78.47894, -0.36293 ], [ -78.48085, -0.36335 ], [ -78.4768, -0.35989 ], [ -78.47715, -0.35907 ], [ -78.47299, -0.35689 ], [ -78.47463, -0.36323 ] ] ], [ [ [ -78.45045, -0.2558 ], [ -78.44535, -0.25794 ], [ -78.44568, -0.25873 ], [ -78.44782, -0.2585 ], [ -78.44788, -0.26088 ], [ -78.44978, -0.26171 ], [ -78.4496, -0.26586 ], [ -78.45131, -0.2645 ], [ -78.45183, -0.2606 ], [ -78.45569, -0.25972 ], [ -78.45336, -0.25817 ], [ -78.45194, -0.25442 ], [ -78.45045, -0.2558 ] ] ], [ [ [ -78.44953, -0.22411 ], [ -78.45323, -0.22365 ], [ -78.45192, -0.21972 ], [ -78.45387, -0.21995 ], [ -78.45794, -0.21815 ], [ -78.4565, -0.21642 ], [ -78.45729, -0.2158 ], [ -78.45829, -0.20414 ], [ -78.45607, -0.20157 ], [ -78.4559, -0.19922 ], [ -78.44937, -0.19833 ], [ -78.45023, -0.19687 ], [ -78.44722, -0.19453 ], [ -78.44737, -0.19598 ], [ -78.44176, -0.19643 ], [ -78.44222, -0.19485 ], [ -78.43978, -0.19437 ], [ -78.4386, -0.19282 ], [ -78.43371, -0.19072 ], [ -78.43045, -0.18725 ], [ -78.42565, -0.18724 ], [ -78.42339, -0.1856 ], [ -78.42352, -0.18657 ], [ -78.42263, -0.18599 ], [ -78.41928, -0.18778 ], [ -78.41664, -0.1872 ], [ -78.4186, -0.18969 ], [ -78.41599, -0.18787 ], [ -78.41677, -0.18926 ], [ -78.41495, -0.18879 ], [ -78.4117, -0.18538 ], [ -78.41267, -0.18296 ], [ -78.41222, -0.17913 ], [ -78.41103, -0.17985 ], [ -78.41121, -0.18121 ], [ -78.41109, -0.18248 ], [ -78.41069, -0.18007 ], [ -78.40927, -0.17978 ], [ -78.40834, -0.1824 ], [ -78.40704, -0.18268 ], [ -78.40929, -0.18698 ], [ -78.40742, -0.18791 ], [ -78.40492, -0.19215 ], [ -78.40737, -0.19343 ], [ -78.40783, -0.20001 ], [ -78.40738, -0.20316 ], [ -78.40642, -0.20357 ], [ -78.4061, -0.2055 ], [ -78.40469, -0.20648 ], [ -78.40612, -0.20457 ], [ -78.4049, -0.20304 ], [ -78.40642, -0.20281 ], [ -78.40598, -0.20103 ], [ -78.40666, -0.20038 ], [ -78.40539, -0.19933 ], [ -78.40696, -0.19606 ], [ -78.40642, -0.19434 ], [ -78.40541, -0.19449 ], [ -78.40469, -0.19683 ], [ -78.4004, -0.20265 ], [ -78.39847, -0.20363 ], [ -78.4025, -0.19889 ], [ -78.40023, -0.2004 ], [ -78.39908, -0.2 ], [ -78.39878, -0.19973 ], [ -78.4001, -0.20027 ], [ -78.4009, -0.19923 ], [ -78.39955, -0.19753 ], [ -78.4003, -0.19693 ], [ -78.40034, -0.19291 ], [ -78.39913, -0.19132 ], [ -78.3983, -0.19076 ], [ -78.39765, -0.19155 ], [ -78.39517, -0.18889 ], [ -78.39259, -0.19457 ], [ -78.39153, -0.195 ], [ -78.38668, -0.19039 ], [ -78.3857, -0.19259 ], [ -78.37906, -0.18787 ], [ -78.3778, -0.1889 ], [ -78.37792, -0.19157 ], [ -78.3744, -0.19773 ], [ -78.37481, -0.2009 ], [ -78.37197, -0.206 ], [ -78.37062, -0.21165 ], [ -78.37154, -0.21315 ], [ -78.36748, -0.22418 ], [ -78.36806, -0.22646 ], [ -78.36998, -0.22701 ], [ -78.37237, -0.22222 ], [ -78.37465, -0.22342 ], [ -78.37569, -0.22226 ], [ -78.377, -0.22356 ], [ -78.3764, -0.2242 ], [ -78.37731, -0.22571 ], [ -78.37985, -0.22537 ], [ -78.38183, -0.22752 ], [ -78.38373, -0.22788 ], [ -78.38432, -0.22936 ], [ -78.38605, -0.22976 ], [ -78.38829, -0.22884 ], [ -78.38873, -0.22738 ], [ -78.39063, -0.22628 ], [ -78.39056, -0.22823 ], [ -78.39206, -0.23002 ], [ -78.39175, -0.23054 ], [ -78.39097, -0.22907 ], [ -78.39063, -0.23088 ], [ -78.39358, -0.23335 ], [ -78.39478, -0.23233 ], [ -78.39395, -0.2256 ], [ -78.39546, -0.2257 ], [ -78.39745, -0.22373 ], [ -78.40049, -0.22609 ], [ -78.40072, -0.22765 ], [ -78.40254, -0.22937 ], [ -78.40479, -0.22723 ], [ -78.40707, -0.22676 ], [ -78.40807, -0.22475 ], [ -78.41213, -0.22452 ], [ -78.41407, -0.22935 ], [ -78.41533, -0.22928 ], [ -78.41721, -0.22382 ], [ -78.42015, -0.22363 ], [ -78.42138, -0.22461 ], [ -78.42082, -0.22857 ], [ -78.4217, -0.22446 ], [ -78.42472, -0.22828 ], [ -78.42496, -0.22734 ], [ -78.42621, -0.22868 ], [ -78.42824, -0.22819 ], [ -78.42959, -0.22542 ], [ -78.43053, -0.22568 ], [ -78.4318, -0.22928 ], [ -78.4344, -0.22804 ], [ -78.43499, -0.22945 ], [ -78.43786, -0.22904 ], [ -78.43931, -0.23133 ], [ -78.44334, -0.23141 ], [ -78.44586, -0.23551 ], [ -78.44865, -0.23624 ], [ -78.45194, -0.23287 ], [ -78.45228, -0.23123 ], [ -78.45379, -0.23075 ], [ -78.45359, -0.22997 ], [ -78.4514, -0.23001 ], [ -78.44876, -0.22603 ], [ -78.4484, -0.22463 ], [ -78.44953, -0.22411 ] ] ], [ [ [ -78.47339, -0.24375 ], [ -78.46509, -0.24503 ], [ -78.46491, -0.24593 ], [ -78.46111, -0.24768 ], [ -78.46212, -0.24989 ], [ -78.46753, -0.24677 ], [ -78.47309, -0.24555 ], [ -78.47312, -0.24428 ], [ -78.47448, -0.245 ], [ -78.47339, -0.24375 ] ] ], [ [ [ -78.57975, -0.24785 ], [ -78.5843, -0.24885 ], [ -78.58454, -0.24798 ], [ -78.58406, -0.24705 ], [ -78.58294, -0.24758 ], [ -78.58108, -0.24682 ], [ -78.57975, -0.24785 ] ] ], [ [ [ -78.47103, -0.19891 ], [ -78.4708, -0.19851 ], [ -78.4722, -0.19763 ], [ -78.4703, -0.19748 ], [ -78.47013, -0.19846 ], [ -78.47103, -0.19891 ] ] ], [ [ [ -78.36888, -0.36279 ], [ -78.36953, -0.36578 ], [ -78.37104, -0.36637 ], [ -78.37048, -0.36775 ], [ -78.37146, -0.36836 ], [ -78.37086, -0.36935 ], [ -78.3714, -0.37356 ], [ -78.37219, -0.37374 ], [ -78.37158, -0.37575 ], [ -78.37258, -0.38 ], [ -78.37084, -0.38134 ], [ -78.37069, -0.379 ], [ -78.3691, -0.37727 ], [ -78.36762, -0.37747 ], [ -78.36901, -0.3756 ], [ -78.36732, -0.37575 ], [ -78.36727, -0.3766 ], [ -78.3659, -0.37594 ], [ -78.36466, -0.37802 ], [ -78.36525, -0.38275 ], [ -78.3629, -0.3861 ], [ -78.36778, -0.38719 ], [ -78.36866, -0.38567 ], [ -78.37155, -0.38543 ], [ -78.37223, -0.38643 ], [ -78.37157, -0.3887 ], [ -78.37258, -0.38878 ], [ -78.37274, -0.39259 ], [ -78.37364, -0.39342 ], [ -78.37388, -0.38674 ], [ -78.37539, -0.38272 ], [ -78.37447, -0.37835 ], [ -78.37605, -0.37125 ], [ -78.37547, -0.3703 ], [ -78.37644, -0.37013 ], [ -78.37552, -0.37004 ], [ -78.37628, -0.36816 ], [ -78.37569, -0.36669 ], [ -78.37766, -0.36624 ], [ -78.37792, -0.3653 ], [ -78.37567, -0.36487 ], [ -78.37468, -0.36693 ], [ -78.3729, -0.36666 ], [ -78.3729, -0.3631 ], [ -78.36996, -0.36201 ], [ -78.36888, -0.36279 ] ] ], [ [ [ -78.35604, -0.27574 ], [ -78.35233, -0.27608 ], [ -78.35238, -0.2786 ], [ -78.35504, -0.2792 ], [ -78.35497, -0.28 ], [ -78.35341, -0.28001 ], [ -78.35546, -0.28029 ], [ -78.35579, -0.28123 ], [ -78.35286, -0.28161 ], [ -78.35138, -0.27989 ], [ -78.3507, -0.28092 ], [ -78.35166, -0.28271 ], [ -78.34883, -0.28452 ], [ -78.34844, -0.2859 ], [ -78.34982, -0.29062 ], [ -78.35668, -0.29581 ], [ -78.35752, -0.2983 ], [ -78.35578, -0.29944 ], [ -78.35775, -0.3014 ], [ -78.35756, -0.29962 ], [ -78.35855, -0.29962 ], [ -78.35953, -0.30413 ], [ -78.36165, -0.30339 ], [ -78.36419, -0.30741 ], [ -78.36484, -0.31044 ], [ -78.3658, -0.30804 ], [ -78.36795, -0.3085 ], [ -78.36981, -0.30209 ], [ -78.3692, -0.30084 ], [ -78.36748, -0.30134 ], [ -78.36736, -0.29821 ], [ -78.3658, -0.29917 ], [ -78.36654, -0.29372 ], [ -78.36563, -0.29076 ], [ -78.36598, -0.28741 ], [ -78.36463, -0.28672 ], [ -78.36518, -0.28362 ], [ -78.36179, -0.27952 ], [ -78.36069, -0.27657 ], [ -78.3615, -0.27404 ], [ -78.35879, -0.27291 ], [ -78.35668, -0.27594 ], [ -78.35604, -0.27574 ] ] ], [ [ [ -78.33682, -0.25886 ], [ -78.33393, -0.26138 ], [ -78.33195, -0.25951 ], [ -78.32954, -0.25912 ], [ -78.32756, -0.26248 ], [ -78.32935, -0.26518 ], [ -78.32676, -0.26806 ], [ -78.33013, -0.27007 ], [ -78.32797, -0.27137 ], [ -78.33094, -0.27149 ], [ -78.33123, -0.27252 ], [ -78.32829, -0.27739 ], [ -78.33131, -0.27832 ], [ -78.33289, -0.27698 ], [ -78.33418, -0.27873 ], [ -78.33745, -0.27724 ], [ -78.33778, -0.27812 ], [ -78.33652, -0.27896 ], [ -78.33828, -0.28048 ], [ -78.3372, -0.28385 ], [ -78.33845, -0.2833 ], [ -78.33793, -0.28534 ], [ -78.34199, -0.28626 ], [ -78.34202, -0.28246 ], [ -78.33992, -0.28177 ], [ -78.34077, -0.27893 ], [ -78.33818, -0.27787 ], [ -78.34012, -0.27652 ], [ -78.34219, -0.27292 ], [ -78.34, -0.26782 ], [ -78.33834, -0.26694 ], [ -78.33989, -0.26425 ], [ -78.33818, -0.26021 ], [ -78.33917, -0.26057 ], [ -78.34138, -0.2576 ], [ -78.34074, -0.25667 ], [ -78.33682, -0.25886 ] ] ], [ [ [ -78.3066, -0.24818 ], [ -78.30618, -0.24978 ], [ -78.31026, -0.25017 ], [ -78.31432, -0.24642 ], [ -78.30884, -0.24702 ], [ -78.30769, -0.24578 ], [ -78.30673, -0.24619 ], [ -78.3066, -0.24818 ] ] ], [ [ [ -78.32963, -0.24325 ], [ -78.32882, -0.24328 ], [ -78.32975, -0.2479 ], [ -78.33076, -0.2499 ], [ -78.33249, -0.25078 ], [ -78.33265, -0.24995 ], [ -78.33593, -0.24919 ], [ -78.33892, -0.24633 ], [ -78.33812, -0.2449 ], [ -78.3351, -0.24487 ], [ -78.33301, -0.24282 ], [ -78.33019, -0.2424 ], [ -78.32963, -0.24325 ] ] ], [ [ [ -78.33398, -0.22893 ], [ -78.33487, -0.23098 ], [ -78.33091, -0.23302 ], [ -78.3274, -0.23649 ], [ -78.32823, -0.23716 ], [ -78.32199, -0.23897 ], [ -78.32255, -0.24274 ], [ -78.3301, -0.24079 ], [ -78.33315, -0.23592 ], [ -78.33956, -0.23398 ], [ -78.3476, -0.22514 ], [ -78.34971, -0.22726 ], [ -78.35133, -0.22593 ], [ -78.35371, -0.22303 ], [ -78.35349, -0.22007 ], [ -78.35948, -0.21468 ], [ -78.36057, -0.21524 ], [ -78.36189, -0.21417 ], [ -78.36218, -0.21226 ], [ -78.36553, -0.20909 ], [ -78.3683, -0.21041 ], [ -78.37041, -0.20133 ], [ -78.36926, -0.20128 ], [ -78.36836, -0.19977 ], [ -78.36727, -0.20122 ], [ -78.3683, -0.19974 ], [ -78.36229, -0.19761 ], [ -78.35964, -0.20206 ], [ -78.36059, -0.20304 ], [ -78.35981, -0.20451 ], [ -78.36392, -0.20666 ], [ -78.36479, -0.20492 ], [ -78.36659, -0.20626 ], [ -78.36626, -0.20753 ], [ -78.36173, -0.21 ], [ -78.36048, -0.21245 ], [ -78.35278, -0.22002 ], [ -78.34982, -0.21919 ], [ -78.34908, -0.22018 ], [ -78.34795, -0.21927 ], [ -78.34662, -0.22078 ], [ -78.34553, -0.21924 ], [ -78.34711, -0.21705 ], [ -78.34342, -0.2144 ], [ -78.34399, -0.21355 ], [ -78.34071, -0.21176 ], [ -78.3433, -0.20588 ], [ -78.34208, -0.20689 ], [ -78.34109, -0.20646 ], [ -78.34058, -0.20758 ], [ -78.34121, -0.20784 ], [ -78.3384, -0.20927 ], [ -78.3378, -0.21114 ], [ -78.33476, -0.21055 ], [ -78.334, -0.21363 ], [ -78.3374, -0.21872 ], [ -78.33575, -0.22195 ], [ -78.33291, -0.22298 ], [ -78.33398, -0.22893 ] ], [ [ -78.336, -0.22668 ], [ -78.336, -0.22667 ], [ -78.33593, -0.22671 ], [ -78.336, -0.22668 ] ] ], [ [ [ -78.35275, -0.20705 ], [ -78.34989, -0.20507 ], [ -78.34917, -0.20657 ], [ -78.35236, -0.20823 ], [ -78.35275, -0.20705 ] ] ], [ [ [ -78.44228, -0.14607 ], [ -78.44233, -0.14685 ], [ -78.44168, -0.14561 ], [ -78.44064, -0.14567 ], [ -78.43828, -0.14775 ], [ -78.43394, -0.14941 ], [ -78.4337, -0.15052 ], [ -78.43756, -0.15203 ], [ -78.44251, -0.15131 ], [ -78.44682, -0.14748 ], [ -78.44425, -0.14517 ], [ -78.44192, -0.14502 ], [ -78.44228, -0.14607 ] ] ], [ [ [ -78.42302, -0.14804 ], [ -78.42532, -0.1476 ], [ -78.42563, -0.14553 ], [ -78.42172, -0.14604 ], [ -78.42302, -0.14804 ] ] ], [ [ [ -78.34176, -0.18021 ], [ -78.33984, -0.18634 ], [ -78.33915, -0.18703 ], [ -78.33914, -0.18375 ], [ -78.33849, -0.18359 ], [ -78.33628, -0.18764 ], [ -78.33791, -0.1895 ], [ -78.33686, -0.19206 ], [ -78.33746, -0.19471 ], [ -78.3346, -0.19836 ], [ -78.33558, -0.19969 ], [ -78.33219, -0.20169 ], [ -78.3336, -0.20426 ], [ -78.32886, -0.20853 ], [ -78.334, -0.20982 ], [ -78.33676, -0.20922 ], [ -78.33733, -0.20438 ], [ -78.336, -0.20231 ], [ -78.33787, -0.20003 ], [ -78.33689, -0.19947 ], [ -78.33986, -0.19497 ], [ -78.34014, -0.19296 ], [ -78.3419, -0.19392 ], [ -78.34279, -0.19346 ], [ -78.35011, -0.18638 ], [ -78.34724, -0.18436 ], [ -78.34887, -0.1828 ], [ -78.34725, -0.1809 ], [ -78.34608, -0.182 ], [ -78.34313, -0.17823 ], [ -78.34176, -0.18021 ] ] ], [ [ [ -78.32013, -0.15374 ], [ -78.31481, -0.15982 ], [ -78.30932, -0.15891 ], [ -78.30671, -0.16146 ], [ -78.30565, -0.16498 ], [ -78.30876, -0.16917 ], [ -78.3109, -0.16923 ], [ -78.31223, -0.17114 ], [ -78.31733, -0.16947 ], [ -78.3189, -0.17091 ], [ -78.32086, -0.1701 ], [ -78.3223, -0.17161 ], [ -78.32488, -0.17037 ], [ -78.32803, -0.17813 ], [ -78.33378, -0.17663 ], [ -78.33362, -0.1755 ], [ -78.33153, -0.17542 ], [ -78.32888, -0.17714 ], [ -78.32823, -0.17527 ], [ -78.33324, -0.17269 ], [ -78.33431, -0.16928 ], [ -78.32812, -0.1719 ], [ -78.32666, -0.1699 ], [ -78.32654, -0.16794 ], [ -78.3285, -0.16788 ], [ -78.32833, -0.16609 ], [ -78.32373, -0.16463 ], [ -78.32375, -0.16259 ], [ -78.32791, -0.15585 ], [ -78.32692, -0.15635 ], [ -78.32683, -0.15527 ], [ -78.32437, -0.15608 ], [ -78.32309, -0.15232 ], [ -78.32013, -0.15374 ] ] ], [ [ [ -78.34237, -0.15825 ], [ -78.33986, -0.17008 ], [ -78.34132, -0.1706 ], [ -78.34618, -0.15634 ], [ -78.34179, -0.15491 ], [ -78.34237, -0.15825 ] ] ], [ [ [ -78.3639, -0.19305 ], [ -78.36424, -0.19433 ], [ -78.36734, -0.19542 ], [ -78.36786, -0.19384 ], [ -78.36473, -0.1927 ], [ -78.3642, -0.19151 ], [ -78.3639, -0.19305 ] ] ], [ [ [ -78.38256, -0.18335 ], [ -78.38182, -0.18439 ], [ -78.38452, -0.18686 ], [ -78.38561, -0.18498 ], [ -78.38507, -0.18459 ], [ -78.38656, -0.18339 ], [ -78.38564, -0.18374 ], [ -78.38328, -0.18234 ], [ -78.38256, -0.18335 ] ] ], [ [ [ -78.35682, -0.17287 ], [ -78.35309, -0.18091 ], [ -78.35632, -0.18282 ], [ -78.35749, -0.18481 ], [ -78.35857, -0.18256 ], [ -78.36119, -0.18406 ], [ -78.35986, -0.18646 ], [ -78.36493, -0.18952 ], [ -78.3665, -0.18353 ], [ -78.36813, -0.18315 ], [ -78.37183, -0.17746 ], [ -78.37354, -0.17877 ], [ -78.37449, -0.17539 ], [ -78.37505, -0.17473 ], [ -78.37599, -0.17532 ], [ -78.37905, -0.17211 ], [ -78.37871, -0.17075 ], [ -78.37313, -0.16856 ], [ -78.38025, -0.15923 ], [ -78.37804, -0.15746 ], [ -78.37621, -0.15828 ], [ -78.37118, -0.16795 ], [ -78.3684, -0.16656 ], [ -78.36866, -0.16865 ], [ -78.3664, -0.16897 ], [ -78.36568, -0.17169 ], [ -78.36211, -0.17121 ], [ -78.36269, -0.17037 ], [ -78.36156, -0.16949 ], [ -78.356, -0.16653 ], [ -78.35682, -0.17287 ] ] ], [ [ [ -78.33671, -0.15398 ], [ -78.33594, -0.15585 ], [ -78.33461, -0.15512 ], [ -78.33353, -0.1566 ], [ -78.33734, -0.15988 ], [ -78.33921, -0.15463 ], [ -78.33671, -0.15398 ] ] ], [ [ [ -78.29076, -0.12471 ], [ -78.28891, -0.12661 ], [ -78.2904, -0.12832 ], [ -78.28953, -0.12909 ], [ -78.29108, -0.13161 ], [ -78.2959, -0.13121 ], [ -78.30159, -0.12857 ], [ -78.29807, -0.12331 ], [ -78.29284, -0.12346 ], [ -78.29076, -0.12471 ] ] ], [ [ [ -78.31082, -0.12112 ], [ -78.30669, -0.12677 ], [ -78.30769, -0.12925 ], [ -78.31272, -0.13255 ], [ -78.31617, -0.13167 ], [ -78.31598, -0.12994 ], [ -78.31744, -0.13001 ], [ -78.31713, -0.12748 ], [ -78.32085, -0.12735 ], [ -78.32011, -0.12543 ], [ -78.32434, -0.12376 ], [ -78.32385, -0.12226 ], [ -78.31903, -0.12369 ], [ -78.31747, -0.11998 ], [ -78.31567, -0.12061 ], [ -78.31445, -0.11812 ], [ -78.31082, -0.12112 ] ] ], [ [ [ -78.38794, -0.14564 ], [ -78.38772, -0.14826 ], [ -78.38053, -0.15632 ], [ -78.38356, -0.15842 ], [ -78.38112, -0.16243 ], [ -78.38321, -0.16463 ], [ -78.38906, -0.16127 ], [ -78.39088, -0.1571 ], [ -78.39188, -0.15156 ], [ -78.38777, -0.15612 ], [ -78.39098, -0.14703 ], [ -78.38898, -0.14523 ], [ -78.39051, -0.14032 ], [ -78.38995, -0.13981 ], [ -78.38794, -0.14564 ] ] ], [ [ [ -78.35748, -0.1007 ], [ -78.35558, -0.10118 ], [ -78.35396, -0.10306 ], [ -78.35369, -0.10513 ], [ -78.35205, -0.10641 ], [ -78.35276, -0.11037 ], [ -78.351, -0.11184 ], [ -78.35353, -0.11811 ], [ -78.35197, -0.11933 ], [ -78.35166, -0.12569 ], [ -78.34483, -0.13704 ], [ -78.34483, -0.14385 ], [ -78.34317, -0.14685 ], [ -78.34315, -0.1524 ], [ -78.34163, -0.15416 ], [ -78.35152, -0.15424 ], [ -78.3539, -0.15118 ], [ -78.35972, -0.13801 ], [ -78.36042, -0.13192 ], [ -78.36523, -0.12535 ], [ -78.37065, -0.1223 ], [ -78.36881, -0.11579 ], [ -78.37024, -0.11167 ], [ -78.37351, -0.11008 ], [ -78.37601, -0.10737 ], [ -78.37183, -0.10372 ], [ -78.37144, -0.10173 ], [ -78.36743, -0.10059 ], [ -78.36335, -0.0974 ], [ -78.36144, -0.10257 ], [ -78.35975, -0.10361 ], [ -78.35779, -0.10231 ], [ -78.35748, -0.1007 ] ] ], [ [ [ -78.34116, -0.05616 ], [ -78.33979, -0.05655 ], [ -78.34051, -0.05852 ], [ -78.33944, -0.06087 ], [ -78.34231, -0.06099 ], [ -78.34316, -0.06346 ], [ -78.34478, -0.06237 ], [ -78.34604, -0.06343 ], [ -78.35003, -0.06252 ], [ -78.35152, -0.06331 ], [ -78.35373, -0.06588 ], [ -78.35345, -0.06771 ], [ -78.35427, -0.06711 ], [ -78.35557, -0.06788 ], [ -78.35735, -0.07029 ], [ -78.35628, -0.07107 ], [ -78.35736, -0.07399 ], [ -78.36047, -0.07233 ], [ -78.36102, -0.07063 ], [ -78.36476, -0.07004 ], [ -78.36709, -0.06793 ], [ -78.36521, -0.06644 ], [ -78.36567, -0.06303 ], [ -78.36421, -0.06436 ], [ -78.36282, -0.06305 ], [ -78.36144, -0.06338 ], [ -78.35958, -0.06122 ], [ -78.35895, -0.06145 ], [ -78.35987, -0.06364 ], [ -78.35457, -0.06166 ], [ -78.35539, -0.05733 ], [ -78.35701, -0.0579 ], [ -78.35656, -0.05562 ], [ -78.35775, -0.05226 ], [ -78.35479, -0.05263 ], [ -78.35406, -0.0519 ], [ -78.35339, -0.05384 ], [ -78.35255, -0.05105 ], [ -78.35088, -0.05489 ], [ -78.35049, -0.05164 ], [ -78.34825, -0.05201 ], [ -78.34212, -0.04879 ], [ -78.34362, -0.05448 ], [ -78.34116, -0.05616 ] ] ], [ [ [ -78.40748, -0.09609 ], [ -78.40824, -0.09664 ], [ -78.40877, -0.0956 ], [ -78.41012, -0.09806 ], [ -78.40869, -0.10133 ], [ -78.41144, -0.10273 ], [ -78.41364, -0.09975 ], [ -78.41315, -0.09682 ], [ -78.41454, -0.09691 ], [ -78.41499, -0.09295 ], [ -78.40984, -0.09059 ], [ -78.40814, -0.09291 ], [ -78.40748, -0.09609 ] ] ], [ [ [ -78.48155, 0.00869 ], [ -78.47996, 0.00087 ], [ -78.48156, -0.00151 ], [ -78.48515, -0.00356 ], [ -78.4864, -0.00243 ], [ -78.48671, -0.00008 ], [ -78.48518, 0.00791 ], [ -78.48448, 0.00898 ], [ -78.48155, 0.00869 ] ] ], [ [ [ -78.49676, -0.07606 ], [ -78.49673, -0.07737 ], [ -78.49812, -0.07718 ], [ -78.49694, -0.07556 ], [ -78.49676, -0.07606 ] ] ], [ [ [ -78.49025, -0.07532 ], [ -78.48987, -0.07636 ], [ -78.49342, -0.07753 ], [ -78.49351, -0.07641 ], [ -78.49136, -0.07513 ], [ -78.49131, -0.07304 ], [ -78.49025, -0.07532 ] ] ], [ [ [ -78.51985, -0.00135 ], [ -78.5217, -0.00071 ], [ -78.52045, 0.00018 ], [ -78.52023, -0.0006 ], [ -78.51863, -0.00071 ], [ -78.51749, 0.00002 ], [ -78.51645, 0.00316 ], [ -78.51543, 0.00347 ], [ -78.51345, 0.0031 ], [ -78.51367, 0.00123 ], [ -78.51016, 0.00256 ], [ -78.50921, 0.00153 ], [ -78.50625, 0.00108 ], [ -78.50639, 0.00193 ], [ -78.50431, 0.00262 ], [ -78.50461, 0.00786 ], [ -78.50365, 0.00918 ], [ -78.50255, 0.00909 ], [ -78.50229, 0.00457 ], [ -78.49411, 0.00575 ], [ -78.49009, 0.00538 ], [ -78.48909, 0.00395 ], [ -78.48907, 0.00308 ], [ -78.49599, 0.00255 ], [ -78.49898, 0.0014 ], [ -78.49868, -0.00052 ], [ -78.5005, -0.00116 ], [ -78.50027, -0.00285 ], [ -78.49524, -0.00521 ], [ -78.4962, -0.00777 ], [ -78.49975, -0.00646 ], [ -78.49953, -0.00754 ], [ -78.50455, -0.00731 ], [ -78.50447, -0.00943 ], [ -78.5078, -0.01045 ], [ -78.50876, -0.0029 ], [ -78.51082, -0.00262 ], [ -78.51061, -0.00166 ], [ -78.5135, -0.00226 ], [ -78.51242, -0.00696 ], [ -78.51459, -0.00916 ], [ -78.51396, -0.00558 ], [ -78.51568, -0.00343 ], [ -78.51499, -0.00331 ], [ -78.51985, -0.00135 ] ] ], [ [ [ -78.57672, -0.06492 ], [ -78.5745, -0.06526 ], [ -78.57528, -0.06802 ], [ -78.57671, -0.06798 ], [ -78.57568, -0.073 ], [ -78.57587, -0.07374 ], [ -78.57934, -0.06515 ], [ -78.57672, -0.06492 ] ] ], [ [ [ -78.68174, 0.05958 ], [ -78.68427, 0.05968 ], [ -78.68399, 0.06088 ], [ -78.6848, 0.06074 ], [ -78.68577, 0.0625 ], [ -78.68458, 0.06232 ], [ -78.68277, 0.06352 ], [ -78.68397, 0.06424 ], [ -78.68122, 0.06512 ], [ -78.68098, 0.06333 ], [ -78.67943, 0.06463 ], [ -78.67855, 0.06278 ], [ -78.68137, 0.06202 ], [ -78.6808, 0.06063 ], [ -78.68173, 0.06151 ], [ -78.68174, 0.05958 ] ], [ [ -78.68211, 0.06026 ], [ -78.6821, 0.06026 ], [ -78.6821, 0.06025 ], [ -78.68211, 0.06026 ] ] ], [ [ [ -78.74796, 0.11247 ], [ -78.74752, 0.11087 ], [ -78.74586, 0.1109 ], [ -78.74755, 0.11061 ], [ -78.74901, 0.11127 ], [ -78.74866, 0.10883 ], [ -78.74947, 0.10778 ], [ -78.75053, 0.11346 ], [ -78.74919, 0.11399 ], [ -78.74796, 0.11247 ] ] ], [ [ [ -78.67423, 0.1373 ], [ -78.67528, 0.13758 ], [ -78.67685, 0.1339 ], [ -78.67644, 0.13634 ], [ -78.67727, 0.13649 ], [ -78.6766, 0.13734 ], [ -78.67883, 0.13646 ], [ -78.6801, 0.13842 ], [ -78.67827, 0.1402 ], [ -78.67755, 0.13861 ], [ -78.67866, 0.13776 ], [ -78.67838, 0.13703 ], [ -78.67733, 0.13842 ], [ -78.67676, 0.14093 ], [ -78.67431, 0.13856 ], [ -78.67423, 0.1373 ] ] ], [ [ [ -78.76434, 0.14401 ], [ -78.76269, 0.14229 ], [ -78.76312, 0.13965 ], [ -78.76496, 0.13927 ], [ -78.76596, 0.14152 ], [ -78.76679, 0.14019 ], [ -78.76935, 0.14069 ], [ -78.76878, 0.14449 ], [ -78.76763, 0.14393 ], [ -78.76521, 0.14486 ], [ -78.76434, 0.14401 ] ] ], [ [ [ -78.30164, -0.10451 ], [ -78.30059, -0.10686 ], [ -78.29466, -0.10737 ], [ -78.28954, -0.11146 ], [ -78.29246, -0.11045 ], [ -78.29398, -0.11673 ], [ -78.29601, -0.11618 ], [ -78.29729, -0.11393 ], [ -78.2965, -0.1136 ], [ -78.30144, -0.11206 ], [ -78.3003, -0.11054 ], [ -78.30126, -0.11005 ], [ -78.3008, -0.10896 ], [ -78.30335, -0.10774 ], [ -78.30164, -0.10451 ] ] ], [ [ [ -78.29786, -0.10045 ], [ -78.29392, -0.10406 ], [ -78.29557, -0.10592 ], [ -78.29873, -0.10559 ], [ -78.3001, -0.10324 ], [ -78.30336, -0.10085 ], [ -78.30053, -0.09683 ], [ -78.29786, -0.10045 ] ] ], [ [ [ -78.32808, -0.07759 ], [ -78.32664, -0.07902 ], [ -78.32733, -0.08002 ], [ -78.32485, -0.08297 ], [ -78.32534, -0.08376 ], [ -78.32377, -0.08492 ], [ -78.3243, -0.08708 ], [ -78.3249, -0.08926 ], [ -78.32969, -0.08743 ], [ -78.33135, -0.09038 ], [ -78.33468, -0.08811 ], [ -78.32908, -0.07695 ], [ -78.32808, -0.07759 ] ] ], [ [ [ -78.33556, -0.07658 ], [ -78.34068, -0.08491 ], [ -78.34725, -0.08116 ], [ -78.34377, -0.07875 ], [ -78.34339, -0.07538 ], [ -78.34032, -0.07418 ], [ -78.33795, -0.06972 ], [ -78.33556, -0.07658 ] ] ], [ [ [ -78.35978, -0.05343 ], [ -78.35832, -0.05386 ], [ -78.35775, -0.05528 ], [ -78.35903, -0.05723 ], [ -78.35862, -0.05892 ], [ -78.36294, -0.05586 ], [ -78.36514, -0.05645 ], [ -78.3647, -0.05399 ], [ -78.36234, -0.0547 ], [ -78.35978, -0.05343 ] ] ], [ [ [ -78.30955, -0.05437 ], [ -78.30732, -0.05427 ], [ -78.30656, -0.05572 ], [ -78.30416, -0.05634 ], [ -78.30654, -0.05826 ], [ -78.30683, -0.06039 ], [ -78.30846, -0.06167 ], [ -78.31054, -0.06076 ], [ -78.31112, -0.06005 ], [ -78.31037, -0.05919 ], [ -78.31228, -0.05751 ], [ -78.3101, -0.05499 ], [ -78.31122, -0.05452 ], [ -78.31105, -0.05409 ], [ -78.30955, -0.05437 ] ] ], [ [ [ -78.31393, -0.02909 ], [ -78.31373, -0.03069 ], [ -78.31224, -0.02999 ], [ -78.3111, -0.0315 ], [ -78.31165, -0.03261 ], [ -78.31027, -0.03409 ], [ -78.31101, -0.0346 ], [ -78.31519, -0.03308 ], [ -78.31637, -0.0355 ], [ -78.31969, -0.03345 ], [ -78.31675, -0.0294 ], [ -78.31516, -0.02977 ], [ -78.31431, -0.02824 ], [ -78.31393, -0.02909 ] ] ], [ [ [ -78.40092, 0.04324 ], [ -78.40029, 0.0422 ], [ -78.4025, 0.04198 ], [ -78.40242, 0.04112 ], [ -78.40517, 0.0401 ], [ -78.40769, 0.03957 ], [ -78.40835, 0.04049 ], [ -78.40729, 0.04273 ], [ -78.40529, 0.0415 ], [ -78.40327, 0.04222 ], [ -78.40318, 0.04335 ], [ -78.40092, 0.04324 ] ] ], [ [ [ -78.40306, 0.0701 ], [ -78.40164, 0.06989 ], [ -78.40108, 0.06871 ], [ -78.40179, 0.06748 ], [ -78.4007, 0.06769 ], [ -78.40076, 0.06653 ], [ -78.39928, 0.06665 ], [ -78.39634, 0.06935 ], [ -78.39734, 0.06549 ], [ -78.39961, 0.06488 ], [ -78.40041, 0.06364 ], [ -78.40344, 0.06398 ], [ -78.40391, 0.06196 ], [ -78.40727, 0.06044 ], [ -78.40812, 0.06215 ], [ -78.40632, 0.06187 ], [ -78.40536, 0.06305 ], [ -78.40631, 0.06481 ], [ -78.40565, 0.06832 ], [ -78.40476, 0.06833 ], [ -78.40501, 0.06966 ], [ -78.40306, 0.0701 ] ] ], [ [ [ -78.40166, 0.12356 ], [ -78.40375, 0.12293 ], [ -78.40551, 0.12384 ], [ -78.40549, 0.12469 ], [ -78.40285, 0.12438 ], [ -78.40141, 0.12534 ], [ -78.40075, 0.12465 ], [ -78.40166, 0.12356 ] ] ], [ [ [ -78.36287, 0.1388 ], [ -78.36189, 0.13751 ], [ -78.36547, 0.13431 ], [ -78.36514, 0.13346 ], [ -78.36949, 0.13276 ], [ -78.37195, 0.13128 ], [ -78.37307, 0.13199 ], [ -78.37558, 0.13058 ], [ -78.37812, 0.13058 ], [ -78.37839, 0.13254 ], [ -78.37721, 0.13264 ], [ -78.37754, 0.13405 ], [ -78.37655, 0.13465 ], [ -78.36872, 0.13639 ], [ -78.36685, 0.13859 ], [ -78.36633, 0.13754 ], [ -78.36287, 0.1388 ] ] ], [ [ [ -78.42435, 0.11274 ], [ -78.41966, 0.10957 ], [ -78.41854, 0.10758 ], [ -78.41912, 0.10692 ], [ -78.4204, 0.10639 ], [ -78.42184, 0.1075 ], [ -78.42425, 0.10761 ], [ -78.42692, 0.1067 ], [ -78.4258, 0.10926 ], [ -78.42795, 0.11201 ], [ -78.42584, 0.11345 ], [ -78.42435, 0.11274 ] ] ], [ [ [ -78.40426, 0.17961 ], [ -78.40267, 0.17965 ], [ -78.40218, 0.17811 ], [ -78.40326, 0.17779 ], [ -78.40317, 0.17691 ], [ -78.40235, 0.17728 ], [ -78.40197, 0.17596 ], [ -78.40366, 0.1758 ], [ -78.40363, 0.17417 ], [ -78.40527, 0.17272 ], [ -78.40501, 0.1713 ], [ -78.40676, 0.17123 ], [ -78.40701, 0.16872 ], [ -78.40923, 0.16874 ], [ -78.41153, 0.17021 ], [ -78.4106, 0.16904 ], [ -78.41234, 0.16708 ], [ -78.41243, 0.16332 ], [ -78.41493, 0.16133 ], [ -78.41458, 0.1584 ], [ -78.41718, 0.15719 ], [ -78.41996, 0.15836 ], [ -78.4184, 0.1644 ], [ -78.41409, 0.17103 ], [ -78.41554, 0.17219 ], [ -78.41503, 0.173 ], [ -78.41398, 0.17273 ], [ -78.41264, 0.17468 ], [ -78.41055, 0.17505 ], [ -78.40679, 0.17977 ], [ -78.40512, 0.18054 ], [ -78.40426, 0.17961 ] ] ] ] } }
]
}
